{"type":"FeatureCollection","features":[{"type":"Feature","geometry":{"type":"Point","coordinates":[34.980151,32.701451]},"properties":{"name_en":"Ayn Hawd","name_ar":"عين حوض","slug":"ayn-hawd","type":"Settlement","group":"Palestinian","status":"Appropriated"}},{"type":"Feature","geometry":{"type":"Point","coordinates":[34.966578,32.682109]},"properties":{"name_en":"al-Mazar","name_ar":"المزار","slug":"al-mazar-haifa","type":"Village","group":"Palestinian","status":"Depopulated","end":1948}},{"type":"Feature","geometry":{"type":"Point","coordinates":[34.96327,32.654305]},"properties":{"name_en":"Jaba'","name_ar":"جبع","slug":"jaba-haifa","type":"Village","group":"Palestinian","status":"Depopulated","end":1948}},{"type":"Feature","geometry":{"type":"Point","coordinates":[34.989649,32.645218]},"properties":{"name_en":"Ijzim","name_ar":"إجزم","slug":"ijzim","type":"Village","group":"Palestinian","status":"Built over","end":1948}},{"type":"Feature","geometry":{"type":"Point","coordinates":[34.968212,32.632538]},"properties":{"name_en":"Ayn Ghazal","name_ar":"عين غزال","slug":"ayn-ghazal","type":"Village","group":"Palestinian","status":"Depopulated","end":1948}},{"type":"Feature","geometry":{"type":"Point","coordinates":[34.934072,32.637142]},"properties":{"name_en":"Kafr Lam","name_ar":"كفر لام","slug":"kafr-lam","type":"Village","group":"Palestinian","status":"Built over","end":1948}},{"type":"Feature","geometry":{"type":"Point","coordinates":[34.936005,32.647416]},"properties":{"name_en":"al-Sarafand","name_ar":"الصرفند","slug":"al-sarafand","type":"Village","group":"Palestinian","status":"Depopulated","end":1948}},{"type":"Feature","geometry":{"type":"Point","coordinates":[34.9174,32.6094]},"properties":{"name_en":"al-Tantura","name_ar":"الطنطورة","slug":"al-tantura","type":"Village","group":"Palestinian","status":"Built over","end":1948}},{"type":"Feature","geometry":{"type":"Point","coordinates":[34.951237,32.596359]},"properties":{"name_en":"Fureidis","name_ar":"عين غزال","slug":"fureidis","type":"Village","group":"Palestinian","status":"Remaining"}},{"type":"Feature","geometry":{"type":"Point","coordinates":[34.972577,32.589685]},"properties":{"name_en":"Meir Shefeiya","name_ar":"ماير شفيا","slug":"meir-shefeya","type":"Settlement","group":"Jewish","status":"Remaining","start":1923}},{"type":"Feature","geometry":{"type":"Point","coordinates":[35.022868,32.7331]},"properties":{"name_en":"Khirbat al-Damun","name_ar":"خربة الدامون","slug":"khirbat-al-damun","type":"Village","group":"Palestinian","status":"Built over","end":1948}},{"type":"Feature","geometry":{"type":"Point","coordinates":[35.066325,32.718901]},"properties":{"name_en":"Isfiya","name_ar":"عسفيا","slug":"isfiya","type":"Village","group":"Palestinian","status":"Remaining"}},{"type":"Feature","geometry":{"type":"Point","coordinates":[35.043039,32.696013]},"properties":{"name_en":"Daliyat al-Karmil","name_ar":"دالية الكرمل","slug":"daliyat-al-karmil","type":"Village","group":"Palestinian","status":"Remaining"}},{"type":"Feature","geometry":{"type":"Point","coordinates":[35.100521,32.675678]},"properties":{"name_en":"Khirbat al-Mansura","name_ar":"خربة المنصورة","slug":"khirbat-al-mansura","type":"Village","group":"Palestinian","status":"Depopulated","end":1948}},{"type":"Feature","geometry":{"type":"Point","coordinates":[35.090569,32.722979]},"properties":{"name_en":"al-Jalama","name_ar":"الجلمة","slug":"al-jalama-haifa","type":"Village","group":"Palestinian","status":"Built over","end":1948}},{"type":"Feature","geometry":{"type":"Point","coordinates":[35.092595,32.751491]},"properties":{"name_en":"Kefar Hasidim Alef","name_ar":"كفار حاسيديم ا","slug":"kefar-hasidim-alef","type":"Settlement","group":"Jewish","status":"Remaining","start":1924}},{"type":"Feature","geometry":{"type":"Point","coordinates":[35.057672,32.758807]},"properties":{"name_en":"Yajur","name_ar":"ياجور","slug":"yajur","type":"Village","group":"Palestinian","status":"Depopulated","end":1948}},{"type":"Feature","geometry":{"type":"Point","coordinates":[35.17821,32.69669]},"properties":{"name_en":"Bet She'arim","name_ar":"Bet She'arim","slug":"bet-shearim","type":"Settlement","group":"Jewish","status":"Remaining","start":1936}},{"type":"Feature","geometry":{"type":"Point","coordinates":[35.151786,32.680993]},"properties":{"name_en":"Kefar Yehoshua'","name_ar":"كفار يهوشع","slug":"kefar-yehoshua","type":"Settlement","group":"Jewish","status":"Remaining","start":1927}},{"type":"Feature","geometry":{"type":"Point","coordinates":[35.167066,32.702451]},"properties":{"name_en":"Ramat Yishai (Jeida)","name_ar":"جيدا","slug":"ramat-yishay-jeida","type":"Settlement","group":"Jewish","status":"Remaining","start":1925}},{"type":"Feature","geometry":{"type":"Point","coordinates":[35.141123,32.697689]},"properties":{"name_en":"Sede Ya'aqov","name_ar":"سدي يعقوب","slug":"sede-yaaqov","type":"Settlement","group":"Jewish","status":"Remaining","start":1927}},{"type":"Feature","geometry":{"type":"Point","coordinates":[35.109866,32.722499]},"properties":{"name_en":"Sha'ar HaAmakim","name_ar":"شاعار هاعماقيم","slug":"shaar-haamaqim","type":"Settlement","group":"Jewish","status":"Remaining","start":1935}},{"type":"Feature","geometry":{"type":"Point","coordinates":[35.14293,32.720363]},"properties":{"name_en":"Allonim","name_ar":"Allonim","slug":"allonim","type":"Settlement","group":"Mixed","status":"Remaining","start":1938}},{"type":"Feature","geometry":{"type":"Point","coordinates":[35.19677,32.69038]},"properties":{"name_en":"Nahalal","name_ar":"نحلال","slug":"nahalal","type":"Settlement","group":"Jewish","status":"Remaining","start":1921}},{"type":"Feature","geometry":{"type":"Point","coordinates":[35.203816,32.678286]},"properties":{"name_en":"Ramat David","name_ar":"رامات ديفيد","slug":"ramat-david","type":"Settlement","group":"Jewish","status":"Remaining","start":1926}},{"type":"Feature","geometry":{"type":"Point","coordinates":[35.128618,32.701834]},"properties":{"name_en":"al-Shaykh Bureik","name_ar":"الشيخ بريك","slug":"al-sheikh-bureik","type":"Village","group":"Palestinian","status":"Depopulated","start":1920,"end":1948}},{"type":"Feature","geometry":{"type":"Point","coordinates":[35.171686,32.957494]},"properties":{"name_en":"Abu Sinan","name_ar":"أبو سنان","slug":"abu-sinan","type":"Village","group":"Palestinian","status":"Remaining"}},{"type":"Feature","geometry":{"type":"Point","coordinates":[35.068248,32.921781]},"properties":{"name_en":"Acre","name_ar":"عكا","slug":"acre","type":"City","group":"Palestinian","status":"Appropriated"}},{"type":"Feature","geometry":{"type":"Point","coordinates":[35.167959,32.978292]},"properties":{"name_en":"Amqa","name_ar":"عمقا","slug":"amqa-acre","type":"Village","group":"Palestinian","status":"Depopulated","end":1948}},{"type":"Feature","geometry":{"type":"Point","coordinates":[35.179054,33.047056]},"properties":{"name_en":"Arab al-Samniyya","name_ar":"عرب السّمنية","slug":"arab-al-samniyya","type":"Village","group":"Palestinian","status":"Built over","end":1948}},{"type":"Feature","geometry":{"type":"Point","coordinates":[35.338329,32.850728]},"properties":{"name_en":"Arraba","name_ar":"عرابة","slug":"arraba-acre","type":"City","group":"Palestinian","status":"Remaining"}},{"type":"Feature","geometry":{"type":"Point","coordinates":[35.142962,33.078079]},"properties":{"name_en":"al-Bassa","name_ar":"البصّة","slug":"al-bassa","type":"Village","group":"Mixed","status":"Built over","end":1948}},{"type":"Feature","geometry":{"type":"Point","coordinates":[35.381185,32.964909]},"properties":{"name_en":"Bayt Jann","name_ar":"بيت جن","slug":"bayt-jann","type":"Village","group":"Palestinian","status":"Remaining"}},{"type":"Feature","geometry":{"type":"Point","coordinates":[35.271464,32.931793]},"properties":{"name_en":"Bi'na","name_ar":"البعنة","slug":"bina","type":"Village","group":"Palestinian","status":"Remaining"}},{"type":"Feature","geometry":{"type":"Point","coordinates":[35.178674,32.905473]},"properties":{"name_en":"al-Birwa","name_ar":"البروة","slug":"al-birwa","type":"Village","group":"Palestinian","status":"Depopulated","end":1948}},{"type":"Feature","geometry":{"type":"Point","coordinates":[35.335748,32.976642]},"properties":{"name_en":"Buqei'a/Peki'in","name_ar":"البقيعة","slug":"buqeia","type":"Village","group":"Palestinian","status":"Remaining"}},{"type":"Feature","geometry":{"type":"Point","coordinates":[35.18229,32.876842]},"properties":{"name_en":"al-Damun","name_ar":"الدامون","slug":"al-damun","type":"Village","group":"Palestinian","status":"Depopulated","end":1948}},{"type":"Feature","geometry":{"type":"Point","coordinates":[35.270569,32.93526]},"properties":{"name_en":"Dayr al-Asad","name_ar":"دير الأسد","slug":"dayr-al-asad","type":"Village","group":"Palestinian","status":"Remaining"}},{"type":"Feature","geometry":{"type":"Point","coordinates":[35.364207,32.862909]},"properties":{"name_en":"Dayr Hanna","name_ar":"دير حنا","slug":"dayr-hanna","type":"Village","group":"Palestinian","status":"Remaining"}},{"type":"Feature","geometry":{"type":"Point","coordinates":[35.324095,33.034969]},"properties":{"name_en":"Dayr al-Qasi","name_ar":"دير القاسي","slug":"dayr-al-qasi","type":"Village","group":"Palestinian","status":"Built over","end":1948}},{"type":"Feature","geometry":{"type":"Point","coordinates":[35.149629,33.000162]},"properties":{"name_en":"al-Ghabisiyya","name_ar":"الغابسية","slug":"al-ghabisiyya","type":"Village","group":"Palestinian","status":"Depopulated","end":1948}},{"type":"Feature","geometry":{"type":"Point","coordinates":[35.172667,33.087808]},"properties":{"name_en":"Hanita","name_ar":"حانيتا","slug":"hanita","type":"Settlement","group":"Jewish","status":"Remaining","start":1938}},{"type":"Feature","geometry":{"type":"Point","coordinates":[35.275571,33.075565]},"properties":{"name_en":"Iqrit","name_ar":"إقرت","slug":"iqrit","type":"Village","group":"Palestinian","status":"Depopulated","end":1948}},{"type":"Feature","geometry":{"type":"Point","coordinates":[35.156631,32.927374]},"properties":{"name_en":"al-Jadeida","name_ar":"الجديدة","slug":"al-jadeida","type":"Village","group":"Palestinian","status":"Remaining"}},{"type":"Feature","geometry":{"type":"Point","coordinates":[35.235312,32.973606]},"properties":{"name_en":"Jatt","name_ar":"جت","slug":"jatt-acre","type":"Village","group":"Palestinian","status":"Remaining"}},{"type":"Feature","geometry":{"type":"Point","coordinates":[35.221993,32.994155]},"properties":{"name_en":"Khirbat Jiddin","name_ar":"خربة جدين","slug":"khirbat-jiddin","type":"Village","group":"Mixed","status":"Built over","end":1948}},{"type":"Feature","geometry":{"type":"Point","coordinates":[35.18703,32.943627]},"properties":{"name_en":"Julis","name_ar":"جولس","slug":"julis-acre","type":"Village","group":"Palestinian","status":"Remaining"}},{"type":"Feature","geometry":{"type":"Point","coordinates":[35.213723,32.866501]},"properties":{"name_en":"Kabul","name_ar":"كابول","slug":"kabul","type":"Village","group":"Palestinian","status":"Remaining","end":1948}},{"type":"Feature","geometry":{"type":"Point","coordinates":[35.419276,32.923074]},"properties":{"name_en":"Kafr 'Inan","name_ar":"كفر عنان","slug":"kafr-inan","type":"Village","group":"Palestinian","status":"Depopulated","end":1948}},{"type":"Feature","geometry":{"type":"Point","coordinates":[35.306397,32.979364]},"properties":{"name_en":"Kafr Sumei","name_ar":"كفر سميع","slug":"kafr-sumei","type":"Village","group":"Palestinian","status":"Remaining"}}]}